$$SOE
2460147.500000000, A.D. 2023-Jul-22 00:00:00.0000, 3.820791249156918E+08, -2.349755559840286E+08, -1.606151905993854E+07,
2460154.500000000, A.D. 2023-Jul-29 00:00:00.0000, 3.870245894582020E+08, -2.263989827923337E+08, -1.597287329924957E+07,
2460161.500000000, A.D. 2023-Aug-05 00:00:00.0000, 3.917620037293244E+08, -2.177006589667586E+08, -1.587564043652740E+07,
2460168.500000000, A.D. 2023-Aug-12 00:00:00.0000, 3.962885410763762E+08, -2.088851056484452E+08, -1.576986134851778E+07,
2460175.500000000, A.D. 2023-Aug-19 00:00:00.0000, 4.006014492601765E+08, -1.999569026087708E+08, -1.565558038142578E+07,
2460182.500000000, A.D. 2023-Aug-26 00:00:00.0000, 4.046980512572628E+08, -1.909206881291903E+08, -1.553284536521612E+07,
2460189.500000000, A.D. 2023-Sep-02 00:00:00.0000, 4.085757461007109E+08, -1.817811589667858E+08, -1.540170763444241E+07,
2460196.500000000, A.D. 2023-Sep-09 00:00:00.0000, 4.122320097962534E+08, -1.725430704413896E+08, -1.526222206222678E+07,
2460203.500000000, A.D. 2023-Sep-16 00:00:00.0000, 4.156643964836512E+08, -1.632112366967088E+08, -1.511444712754218E+07,
2460210.500000000, A.D. 2023-Sep-23 00:00:00.0000, 4.188705402628121E+08, -1.537905308433461E+08, -1.495844503052695E+07,
2460217.500000000, A.D. 2023-Sep-30 00:00:00.0000, 4.218481573504031E+08, -1.442858837889855E+08, -1.479428172723006E+07,
2460224.500000000, A.D. 2023-Oct-07 00:00:00.0000, 4.245950462192132E+08, -1.347022822975196E+08, -1.462202671207453E+07,
2460231.500000000, A.D. 2023-Oct-14 00:00:00.0000, 4.271090867624315E+08, -1.250447695899490E+08, -1.444175291410116E+07,
2460238.500000000, A.D. 2023-Oct-21 00:00:00.0000, 4.293882417109160E+08, -1.153184468812822E+08, -1.425353687201580E+07,
2460245.500000000, A.D. 2023-Oct-28 00:00:00.0000, 4.314305588797362E+08, -1.055284735890951E+08, -1.405745887238827E+07,
2460252.500000000, A.D. 2023-Nov-04 00:00:00.0000, 4.332341729953349E+08, -9.568006698022272E+07, -1.385360299894831E+07,
2460259.500000000, A.D. 2023-Nov-11 00:00:00.0000, 4.347973072819497E+08, -8.577850185141060E+07, -1.364205715792933E+07,
2460266.500000000, A.D. 2023-Nov-18 00:00:00.0000, 4.361182750276883E+08, -7.582911030381311E+07, -1.342291310449412E+07,
2460273.500000000, A.D. 2023-Nov-25 00:00:00.0000, 4.371954812040309E+08, -6.583728158409631E+07, -1.319626647474296E+07,
2460280.500000000, A.D. 2023-Dec-02 00:00:00.0000, 4.380274241680406E+08, -5.580846199856562E+07, -1.296221682651364E+07,
2460287.500000000, A.D. 2023-Dec-09 00:00:00.0000, 4.386126975261270E+08, -4.574815495460243E+07, -1.272086770072228E+07,
2460294.500000000, A.D. 2023-Dec-16 00:00:00.0000, 4.389499924470116E+08, -3.566192111229679E+07, -1.247232672851234E+07,
2460301.500000000, A.D. 2023-Dec-23 00:00:00.0000, 4.390381007712293E+08, -2.555537795313032E+07, -1.221670575995288E+07,
2460308.500000000, A.D. 2023-Dec-30 00:00:00.0000, 4.388759175776524E+08, -1.543419770924096E+07, -1.195412080544719E+07,
2460315.500000000, A.D. 2024-Jan-06 00:00:00.0000, 4.384624414380265E+08, -5.304106008558491E+06, -1.168469182014934E+07,
2460322.500000000, A.D. 2024-Jan-13 00:00:00.0000, 4.377967755326723E+08, 4.829116961218476E+06, -1.140854277030522E+07,
2460329.500000000, A.D. 2024-Jan-20 00:00:00.0000, 4.368781308487526E+08, 1.495963586040481E+07, -1.112580184183467E+07,
2460336.500000000, A.D. 2024-Jan-27 00:00:00.0000, 4.357058294317166E+08, 2.508156083609749E+07, -1.083660155180397E+07,
2460343.500000000, A.D. 2024-Feb-03 00:00:00.0000, 4.342793072616035E+08, 3.518894844998425E+07, -1.054107880104568E+07,
2460350.500000000, A.D. 2024-Feb-10 00:00:00.0000, 4.325981170311739E+08, 4.527580261070547E+07, -1.023937491717742E+07,
2460357.500000000, A.D. 2024-Feb-17 00:00:00.0000, 4.306619309637138E+08, 5.533607552557606E+07, -9.931635700066825E+06,
2460364.500000000, A.D. 2024-Feb-24 00:00:00.0000, 4.284705437053059E+08, 6.536366869365721E+07, -9.618011471751183E+06,
2460371.500000000, A.D. 2024-Mar-02 00:00:00.0000, 4.260238753196594E+08, 7.535243391513190E+07, -9.298657136024538E+06,
2460378.500000000, A.D. 2024-Mar-09 00:00:00.0000, 4.233219745229669E+08, 8.529617426156782E+07, -8.973732265414614E+06,
2460385.500000000, A.D. 2024-Mar-16 00:00:00.0000, 4.203650225517059E+08, 9.518864521125773E+07, -8.643401235582463E+06,
2460392.500000000, A.D. 2024-Mar-23 00:00:00.0000, 4.171533375549572E+08, 1.050235570663399E+08, -8.307833306820668E+06,
2460399.500000000, A.D. 2024-Mar-30 00:00:00.0000, 4.136873772664820E+08, 1.147945786354243E+08, -7.967202448741950E+06,
2460406.500000000, A.D. 2024-Apr-06 00:00:00.0000, 4.099677402131322E+08, 1.244953388236015E+08, -7.621687206434675E+06,
2460413.500000000, A.D. 2024-Apr-13 00:00:00.0000, 4.059951690080435E+08, 1.341194269727795E+08, -7.271470865345173E+06,
2460420.500000000, A.D. 2024-Apr-20 00:00:00.0000, 4.017705547704011E+08, 1.436603946366419E+08, -6.916741608506262E+06,
2460427.500000000, A.D. 2024-Apr-27 00:00:00.0000, 3.972949411492723E+08, 1.531117582370605E+08, -6.557692572398841E+06,
2460434.500000000, A.D. 2024-May-04 00:00:00.0000, 3.925695280330780E+08, 1.624670019060309E+08, -6.194521866583467E+06,
2460441.500000000, A.D. 2024-May-11 00:00:00.0000, 3.875956751744407E+08, 1.717195804188479E+08, -5.827432586863868E+06,
2460448.500000000, A.D. 2024-May-18 00:00:00.0000, 3.823749058021416E+08, 1.808629222490987E+08, -5.456632827214047E+06,
2460455.500000000, A.D. 2024-May-25 00:00:00.0000, 3.769089102348452E+08, 1.898904327493528E+08, -5.082335692635030E+06,
2460462.500000000, A.D. 2024-Jun-01 00:00:00.0000, 3.711995495481995E+08, 1.987954974122715E+08, -4.704759322300985E+06,
2460469.500000000, A.D. 2024-Jun-08 00:00:00.0000, 3.652488595352468E+08, 2.075714852005620E+08, -4.324126946633533E+06,
2460476.500000000, A.D. 2024-Jun-15 00:00:00.0000, 3.590590553526917E+08, 2.162117524993217E+08, -3.940666969737753E+06,
2460483.500000000, A.D. 2024-Jun-22 00:00:00.0000, 3.526325358360109E+08, 2.247096488721569E+08, -3.554612888280615E+06,
2460490.500000000, A.D. 2024-Jun-29 00:00:00.0000, 3.459718853481374E+08, 2.330585228097173E+08, -3.166202999905169E+06,
2460497.500000000, A.D. 2024-Jul-06 00:00:00.0000, 3.390798757971423E+08, 2.412517250093170E+08, -2.775680344906151E+06,
2460504.500000000, A.D. 2024-Jul-13 00:00:00.0000, 3.319594707589670E+08, 2.492826120150170E+08, -2.383292828777164E+06,
2460511.500000000, A.D. 2024-Jul-20 00:00:00.0000, 3.246138297020339E+08, 2.571445513726378E+08, -1.989293248997808E+06,
2460518.500000000, A.D. 2024-Jul-27 00:00:00.0000, 3.170463116405878E+08, 2.648309273472260E+08, -1.593939243608221E+06,
2460525.500000000, A.D. 2024-Aug-03 00:00:00.0000, 3.092604784725380E+08, 2.723351468344845E+08, -1.197493216667995E+06,
2460532.500000000, A.D. 2024-Aug-10 00:00:00.0000, 3.012600981495143E+08, 2.796506454673462E+08, -8.002222556836605E+05,
2460539.500000000, A.D. 2024-Aug-17 00:00:00.0000, 2.930491477073259E+08, 2.867708939442615E+08, -4.023980431338549E+05,
2460546.500000000, A.D. 2024-Aug-24 00:00:00.0000, 2.846318161644512E+08, 2.936894045610135E+08, -4.296766057506204E+03,
2460553.500000000, A.D. 2024-Aug-31 00:00:00.0000, 2.760125073830665E+08, 3.003997378879697E+08, 3.938009610712081E+05,
2460560.500000000, A.D. 2024-Sep-07 00:00:00.0000, 2.671958432367123E+08, 3.068955097218412E+08, 7.916101373459846E+05,
2460567.500000000, A.D. 2024-Sep-14 00:00:00.0000, 2.581866671482569E+08, 3.131703993079734E+08, 1.188841454040810E+06,
2460574.500000000, A.D. 2024-Sep-21 00:00:00.0000, 2.489900459436664E+08, 3.192181592416520E+08, 1.585201630868718E+06,
2460581.500000000, A.D. 2024-Sep-28 00:00:00.0000, 2.396112695057570E+08, 3.250326238197426E+08, 1.980393791686073E+06,
2460588.500000000, A.D. 2024-Oct-05 00:00:00.0000, 2.300558518751655E+08, 3.306077158450767E+08, 2.374117543688521E+06,
2460595.500000000, A.D. 2024-Oct-12 00:00:00.0000, 2.203295334141174E+08, 3.359374548571080E+08, 2.766069036781654E+06,
2460602.500000000, A.D. 2024-Oct-19 00:00:00.0000, 2.104382822541977E+08, 3.410159665092835E+08, 3.155941142007738E+06,
2460609.500000000, A.D. 2024-Oct-26 00:00:00.0000, 2.003882949682152E+08, 3.458374922830390E+08, 3.543423687028602E+06,
2460616.500000000, A.D. 2024-Nov-02 00:00:00.0000, 1.901859966966978E+08, 3.503963993795833E+08, 3.928203713391364E+06,
2460623.500000000, A.D. 2024-Nov-09 00:00:00.0000, 1.798380407990328E+08, 3.546871907972317E+08, 4.309965748803824E+06,
2460630.500000000, A.D. 2024-Nov-16 00:00:00.0000, 1.693513080286456E+08, 3.587045155787942E+08, 4.688392092414811E+06,
2460637.500000000, A.D. 2024-Nov-23 00:00:00.0000, 1.587329052525809E+08, 3.624431791603864E+08, 5.063163105009332E+06,
2460644.500000000, A.D. 2024-Nov-30 00:00:00.0000, 1.479901638969723E+08, 3.658981537575812E+08, 5.433957481759444E+06,
2460651.500000000, A.D. 2024-Dec-07 00:00:00.0000, 1.371306385113100E+08, 3.690645891864362E+08, 5.800452503550619E+06,
2460658.500000000, A.D. 2024-Dec-14 00:00:00.0000, 1.261621047381718E+08, 3.719378253176692E+08, 6.162324429851651E+06,
2460665.500000000, A.D. 2024-Dec-21 00:00:00.0000, 1.150925543440427E+08, 3.745134048908763E+08, 6.519249144158930E+06,
2460672.500000000, A.D. 2024-Dec-28 00:00:00.0000, 1.039301892551592E+08, 3.767870836914786E+08, 6.870902629046142E+06,
2460679.500000000, A.D. 2025-Jan-04 00:00:00.0000, 9.268341717566592E+07, 3.787548404416854E+08, 7.216961226757735E+06,
2460686.500000000, A.D. 2025-Jan-11 00:00:00.0000, 8.136084695241243E+07, 3.804128880311089E+08, 7.557101987425476E+06,
2460693.500000000, A.D. 2025-Jan-18 00:00:00.0000, 6.997128275465919E+07, 3.817576851267927E+08, 7.891003113456011E+06,
2460700.500000000, A.D. 2025-Jan-25 00:00:00.0000, 5.852371729844789E+07, 3.827859476428328E+08, 8.218344438424021E+06,
2460707.500000000, A.D. 2025-Feb-01 00:00:00.0000, 4.702732429176391E+07, 3.834946599908901E+08, 8.538807920018673E+06,
2460714.500000000, A.D. 2025-Feb-08 00:00:00.0000, 3.549145014584467E+07, 3.838810860823303E+08, 8.852078142777920E+06,
$$EOE